[{"OBJECT_NAME":"STARLINK-5050","OBJECT_ID":"2022-119E","EPOCH":"2026-03-09T22:09:50.817312","MEAN_MOTION":15.08836351,"ECCENTRICITY":0.00012955,"INCLINATION":53.2178,"RA_OF_ASC_NODE":287.8552,"ARG_OF_PERICENTER":89.5549,"MEAN_ANOMALY":270.5592,"EPHEMERIS_TYPE":0,"CLASSIFICATION_TYPE":"U","NORAD_CAT_ID":53890,"ELEMENT_SET_NO":999,"REV_AT_EPOCH":19221,"BSTAR":2.9532544e-5,"MEAN_MOTION_DOT":1.82e-6,"MEAN_MOTION_DDOT":0},{"OBJECT_NAME":"KUIPER-00148","OBJECT_ID":"2025-217H","EPOCH":"2026-03-09T06:36:19.446048","MEAN_MOTION":15.09536529,"ECCENTRICITY":0.00081087,"INCLINATION":51.8794,"RA_OF_ASC_NODE":26.5769,"ARG_OF_PERICENTER":351.8096,"MEAN_ANOMALY":8.2745,"EPHEMERIS_TYPE":0,"CLASSIFICATION_TYPE":"U","NORAD_CAT_ID":65769,"ELEMENT_SET_NO":999,"REV_AT_EPOCH":2507,"BSTAR":0.00098730243,"MEAN_MOTION_DOT":0.00015783,"MEAN_MOTION_DDOT":0}]
